COSMOS 2433 (720)       
1 32275C 07052A   23061.99979167  .00000000  00000-0  00000-0 0   612
2 32275  66.0592 356.0888 0003384 286.4136 322.6077  2.13104220    18
COSMOS 2432 (719)       
1 32276C 07052B   23061.99979167  .00000000  00000-0  00000-0 0   613
2 32276  66.0732 356.1942 0011927 329.0394 227.5652  2.13103531    15
COSMOS 2434 (721)       
1 32393C 07065A   23061.99979167  .00000000  00000-0  00000-0 0   617
2 32393  64.3523 232.6090 0004896  77.5285  61.9797  2.13103208    18
COSMOS 2456 (730)       
1 36111C 09070A   23061.99979167 -.00000000  00000-0  00000-0 0   618
2 36111  64.4252 112.1726 0005423 298.3432   3.0452  2.13099253    11
COSMOS 2460 (732)       
1 36402C 10007C   23054.99979167  .00000000  00000-0  00000-0 0   546
2 36402  65.9272 355.0682 0002396 337.2417 109.5460  2.13106246    15
COSMOS 2476 (744)       
1 37867C 11064A   23061.99979167 -.00000000  00000-0  00000-0 0   613
2 37867  64.7090 113.6290 0023659 239.0252 330.1036  2.13101826    10
COSMOS 2477 (745)       
1 37868C 11064B   23061.99979167 -.00000000  00000-0  00000-0 0   614
2 37868  64.7165 113.6965 0020917 240.4665 146.6284  2.13101809    17
COSMOS 2475 (743)       
1 37869C 11064C   23061.99979167 -.00000000  00000-0  00000-0 0   615
2 37869  64.7237 113.7070 0025550 255.7483  89.6032  2.13101977    14
COSMOS 2485 (747)       
1 39155C 13019A   23061.99979167 -.00000000  00000-0  00000-0 0   617
2 39155  64.8708 114.1131 0023986 235.1885  18.3082  2.13101901    11
COSMOS 2492 (754)       
1 39620C 14012A   23061.99979167  .00000000  00000-0  00000-0 0   617
2 39620  65.8106 354.4802 0014919 325.2677 322.5373  2.13103349    12
COSMOS 2500 (755)       
1 40001C 14032A   23061.99979167  .00000000  00000-0  00000-0 0   614
2 40001  65.7494 354.3220 0004934 219.8733 285.8740  2.13102608    12
COSMOS 2501 (702K)      
1 40315C 14075A   23061.99979167  .00000000  00000-0  00000-0 0   619
2 40315  63.6571 232.1259 0017451 204.0785 110.9124  2.13101662    12
COSMOS 2514 (751)       
1 41330C 16008A   23061.99979167  .00000000  00000-0  00000-0 0   615
2 41330  65.5478 353.9495 0008853 223.3234 106.7069  2.13102928    17
COSMOS 2522 (752)       
1 42939C 17055A   23061.99979167  .00000000  00000-0  00000-0 0   614
2 42939  64.1173 232.9456 0005314 234.7245 215.8994  2.13102056    11
COSMOS 2527 (756)       
1 43508C 18053A   23061.99979167 -.00000000  00000-0  00000-0 0   617
2 43508  65.0329 114.1670 0009650 238.2431 244.3288  2.13102636    16
COSMOS 2529 (757)       
1 43687C 18086A   23061.99979167  .00000000  00000-0  00000-0 0   610
2 43687  64.3324 233.3314 0006999 268.5712 137.5279  2.13102285    14
COSMOS 2534 (758)       
1 44299C 19030A   23061.99979167  .00000000  00000-0  00000-0 0   610
2 44299  64.4047 233.2404 0009937 294.1241 246.3152  2.13102152    15
COSMOS 2544 (759)       
1 44850C 19088A   23061.99979167 -.00000000  00000-0  00000-0 0   617
2 44850  65.0186 114.0138 0014541 259.5453 266.2747  2.13102325    19
COSMOS 2545 (760)       
1 45358C 20018A   23061.99979167  .00000000  00000-0  00000-0 0   615
2 45358  64.8875 354.3459 0009159 261.3817 113.6131  2.13102893    16
COSMOS 2547 (705K)      
1 46805C 20075A   23061.99979167  .00000000  00000-0  00000-0 0   616
2 46805  64.6309 232.7414 0005327 239.3559 349.6453  2.13103274    17
COSMOS 2557 (706K)      
1 52984C 20075A   23061.99979167  .00000000  00000-0  00000-0 0   611
2 52984  64.7973 356.5254 0013039 287.8244 177.8012  2.13101925    18
COSMOS 2559 (707K)      
1 54031C 22130A   23061.99979167  .00000000  00000-0  00000-0 0   610
2 54031  64.7681 356.6595 0005716 238.2186 272.5227  2.13101086    15
COSMOS 2564 (761)       
1 54377C 22161A   23061.99979167  .00000000  00000-0  00000-0 0   617
2 54377  64.7712 232.7611 0007073 209.3068 152.0323  2.13102437    12
